[{"OBJECT_NAME":"STARLINK-33850","OBJECT_ID":"2025-085R","EPOCH":"2026-03-18T23:53:57.191712","MEAN_MOTION":15.27575803,"ECCENTRICITY":0.00010681,"INCLINATION":43.0003,"RA_OF_ASC_NODE":338.3228,"ARG_OF_PERICENTER":285.1312,"MEAN_ANOMALY":74.9422,"EPHEMERIS_TYPE":0,"CLASSIFICATION_TYPE":"U","NORAD_CAT_ID":63679,"ELEMENT_SET_NO":999,"REV_AT_EPOCH":5028,"BSTAR":7.5299302e-5,"MEAN_MOTION_DOT":1.81e-5,"MEAN_MOTION_DDOT":0},{"OBJECT_NAME":"STARLINK-33887","OBJECT_ID":"2025-085S","EPOCH":"2026-03-18T23:09:32.234688","MEAN_MOTION":15.27594525,"ECCENTRICITY":0.0001348,"INCLINATION":43.0022,"RA_OF_ASC_NODE":338.086,"ARG_OF_PERICENTER":268.5664,"MEAN_ANOMALY":91.5033,"EPHEMERIS_TYPE":0,"CLASSIFICATION_TYPE":"U","NORAD_CAT_ID":63680,"ELEMENT_SET_NO":999,"REV_AT_EPOCH":5035,"BSTAR":0.00062541886,"MEAN_MOTION_DOT":0.00016995,"MEAN_MOTION_DDOT":0},{"OBJECT_NAME":"STARLINK-33886","OBJECT_ID":"2025-085T","EPOCH":"2026-03-19T00:38:08.737728","MEAN_MOTION":15.27586723,"ECCENTRICITY":0.00014001,"INCLINATION":43.003,"RA_OF_ASC_NODE":337.6872,"ARG_OF_PERICENTER":270.6549,"MEAN_ANOMALY":89.4142,"EPHEMERIS_TYPE":0,"CLASSIFICATION_TYPE":"U","NORAD_CAT_ID":63681,"ELEMENT_SET_NO":999,"REV_AT_EPOCH":5030,"BSTAR":0.00042018654,"MEAN_MOTION_DOT":0.00011321,"MEAN_MOTION_DDOT":0},{"OBJECT_NAME":"STARLINK-33840","OBJECT_ID":"2025-085U","EPOCH":"2026-03-19T00:16:10.536384","MEAN_MOTION":15.27492115,"ECCENTRICITY":0.00033091,"INCLINATION":43.0005,"RA_OF_ASC_NODE":338.436,"ARG_OF_PERICENTER":284.4386,"MEAN_ANOMALY":75.6098,"EPHEMERIS_TYPE":0,"CLASSIFICATION_TYPE":"U","NORAD_CAT_ID":63682,"ELEMENT_SET_NO":999,"REV_AT_EPOCH":5029,"BSTAR":-0.0017950863,"MEAN_MOTION_DOT":-0.00049209,"MEAN_MOTION_DDOT":0},{"OBJECT_NAME":"STARLINK-33851","OBJECT_ID":"2025-085V","EPOCH":"2026-03-18T18:45:34.219584","MEAN_MOTION":15.27594045,"ECCENTRICITY":0.00010843,"INCLINATION":42.9998,"RA_OF_ASC_NODE":339.2883,"ARG_OF_PERICENTER":240.3931,"MEAN_ANOMALY":119.6813,"EPHEMERIS_TYPE":0,"CLASSIFICATION_TYPE":"U","NORAD_CAT_ID":63683,"ELEMENT_SET_NO":999,"REV_AT_EPOCH":5026,"BSTAR":0.00077779307,"MEAN_MOTION_DOT":0.00021212,"MEAN_MOTION_DDOT":0},{"OBJECT_NAME":"STARLINK-33853","OBJECT_ID":"2025-085W","EPOCH":"2026-03-18T17:05:52.325952","MEAN_MOTION":15.27595001,"ECCENTRICITY":5.59e-5,"INCLINATION":43.0007,"RA_OF_ASC_NODE":339.6274,"ARG_OF_PERICENTER":232.2585,"MEAN_ANOMALY":127.8216,"EPHEMERIS_TYPE":0,"CLASSIFICATION_TYPE":"U","NORAD_CAT_ID":63684,"ELEMENT_SET_NO":999,"REV_AT_EPOCH":5025,"BSTAR":0.00016767747,"MEAN_MOTION_DOT":4.357e-5,"MEAN_MOTION_DDOT":0},{"OBJECT_NAME":"STARLINK-33847","OBJECT_ID":"2025-085X","EPOCH":"2026-03-19T00:01:21.089856","MEAN_MOTION":15.27604904,"ECCENTRICITY":0.00013735,"INCLINATION":43.0002,"RA_OF_ASC_NODE":338.3578,"ARG_OF_PERICENTER":272.4369,"MEAN_ANOMALY":87.6325,"EPHEMERIS_TYPE":0,"CLASSIFICATION_TYPE":"U","NORAD_CAT_ID":63685,"ELEMENT_SET_NO":999,"REV_AT_EPOCH":5029,"BSTAR":0.00067658769,"MEAN_MOTION_DOT":0.00018417,"MEAN_MOTION_DDOT":0},{"OBJECT_NAME":"STARLINK-33880","OBJECT_ID":"2025-085Y","EPOCH":"2026-03-19T00:19:51.197664","MEAN_MOTION":15.27586737,"ECCENTRICITY":0.00015107,"INCLINATION":43.0009,"RA_OF_ASC_NODE":338.4543,"ARG_OF_PERICENTER":272.4364,"MEAN_ANOMALY":87.6315,"EPHEMERIS_TYPE":0,"CLASSIFICATION_TYPE":"U","NORAD_CAT_ID":63686,"ELEMENT_SET_NO":999,"REV_AT_EPOCH":5040,"BSTAR":0.0011049879,"MEAN_MOTION_DOT":0.00030276,"MEAN_MOTION_DDOT":0},{"OBJECT_NAME":"STARLINK-33894","OBJECT_ID":"2025-087A","EPOCH":"2026-03-18T23:19:56.669952","MEAN_MOTION":15.30198707,"ECCENTRICITY":0.00024133,"INCLINATION":53.1595,"RA_OF_ASC_NODE":176.2413,"ARG_OF_PERICENTER":76.6007,"MEAN_ANOMALY":283.5262,"EPHEMERIS_TYPE":0,"CLASSIFICATION_TYPE":"U","NORAD_CAT_ID":63697,"ELEMENT_SET_NO":999,"REV_AT_EPOCH":5062,"BSTAR":0.00084024127,"MEAN_MOTION_DOT":0.00024608,"MEAN_MOTION_DDOT":0},{"OBJECT_NAME":"STARLINK-33922","OBJECT_ID":"2025-087B","EPOCH":"2026-03-19T07:04:07.398912","MEAN_MOTION":15.30213829,"ECCENTRICITY":9.062e-5,"INCLINATION":53.1589,"RA_OF_ASC_NODE":174.6963,"ARG_OF_PERICENTER":74.2172,"MEAN_ANOMALY":285.8929,"EPHEMERIS_TYPE":0,"CLASSIFICATION_TYPE":"U","NORAD_CAT_ID":63698,"ELEMENT_SET_NO":999,"REV_AT_EPOCH":5066,"BSTAR":0.00057564729,"MEAN_MOTION_DOT":0.00016736,"MEAN_MOTION_DDOT":0},{"OBJECT_NAME":"STARLINK-33919","OBJECT_ID":"2025-087C","EPOCH":"2026-03-18T13:36:01.596960","MEAN_MOTION":15.30198947,"ECCENTRICITY":6.604e-5,"INCLINATION":53.1545,"RA_OF_ASC_NODE":178.6844,"ARG_OF_PERICENTER":71.9031,"MEAN_ANOMALY":288.2041,"EPHEMERIS_TYPE":0,"CLASSIFICATION_TYPE":"U","NORAD_CAT_ID":63699,"ELEMENT_SET_NO":999,"REV_AT_EPOCH":5055,"BSTAR":0.00046145383,"MEAN_MOTION_DOT":0.00013332,"MEAN_MOTION_DDOT":0},{"OBJECT_NAME":"STARLINK-33908","OBJECT_ID":"2025-087D","EPOCH":"2026-03-18T23:38:10.641696","MEAN_MOTION":15.30209342,"ECCENTRICITY":0.00017971,"INCLINATION":53.1578,"RA_OF_ASC_NODE":176.318,"ARG_OF_PERICENTER":86.5331,"MEAN_ANOMALY":273.5875,"EPHEMERIS_TYPE":0,"CLASSIFICATION_TYPE":"U","NORAD_CAT_ID":63700,"ELEMENT_SET_NO":999,"REV_AT_EPOCH":5062,"BSTAR":0.00072775421,"MEAN_MOTION_DOT":0.00021263,"MEAN_MOTION_DDOT":0},{"OBJECT_NAME":"STARLINK-33950","OBJECT_ID":"2025-087E","EPOCH":"2026-03-19T06:21:44.247744","MEAN_MOTION":15.30201969,"ECCENTRICITY":0.00019832,"INCLINATION":53.1576,"RA_OF_ASC_NODE":175.2225,"ARG_OF_PERICENTER":93.7589,"MEAN_ANOMALY":266.3639,"EPHEMERIS_TYPE":0,"CLASSIFICATION_TYPE":"U","NORAD_CAT_ID":63701,"ELEMENT_SET_NO":999,"REV_AT_EPOCH":5066,"BSTAR":0.00069930288,"MEAN_MOTION_DOT":0.00020411,"MEAN_MOTION_DDOT":0},{"OBJECT_NAME":"STARLINK-33939","OBJECT_ID":"2025-087F","EPOCH":"2026-03-19T06:17:10.542048","MEAN_MOTION":15.30213938,"ECCENTRICITY":0.00014309,"INCLINATION":53.1584,"RA_OF_ASC_NODE":175.2015,"ARG_OF_PERICENTER":94.8209,"MEAN_ANOMALY":265.2955,"EPHEMERIS_TYPE":0,"CLASSIFICATION_TYPE":"U","NORAD_CAT_ID":63702,"ELEMENT_SET_NO":999,"REV_AT_EPOCH":5066,"BSTAR":0.00081059253,"MEAN_MOTION_DOT":0.00023735,"MEAN_MOTION_DDOT":0},{"OBJECT_NAME":"STARLINK-33868","OBJECT_ID":"2025-087G","EPOCH":"2026-03-18T23:44:14.376192","MEAN_MOTION":15.30229049,"ECCENTRICITY":8.097e-5,"INCLINATION":53.1607,"RA_OF_ASC_NODE":176.3403,"ARG_OF_PERICENTER":259.662,"MEAN_ANOMALY":100.4289,"EPHEMERIS_TYPE":0,"CLASSIFICATION_TYPE":"U","NORAD_CAT_ID":63703,"ELEMENT_SET_NO":999,"REV_AT_EPOCH":5062,"BSTAR":0.00078179265,"MEAN_MOTION_DOT":0.00022887,"MEAN_MOTION_DDOT":0},{"OBJECT_NAME":"STARLINK-33937","OBJECT_ID":"2025-087H","EPOCH":"2026-03-19T06:59:31.941024","MEAN_MOTION":15.30264865,"ECCENTRICITY":9.788e-5,"INCLINATION":53.1551,"RA_OF_ASC_NODE":174.6739,"ARG_OF_PERICENTER":76.4416,"MEAN_ANOMALY":283.6694,"EPHEMERIS_TYPE":0,"CLASSIFICATION_TYPE":"U","NORAD_CAT_ID":63704,"ELEMENT_SET_NO":999,"REV_AT_EPOCH":5067,"BSTAR":0.001193765,"MEAN_MOTION_DOT":0.00035236,"MEAN_MOTION_DDOT":0}]
