STARLINK-33850          
1 63679U 25085R   26077.99580083  .00001810  00000+0  75299-4 0  9990
2 63679  43.0003 338.3228 0001068 285.1312  74.9422 15.27575803 50285
STARLINK-33887          
1 63680U 25085S   26077.96495642  .00016995  00000+0  62542-3 0  9991
2 63680  43.0022 338.0860 0001348 268.5664  91.5033 15.27594525 50356
STARLINK-33886          
1 63681U 25085T   26078.02649002  .00011321  00000+0  42019-3 0  9996
2 63681  43.0030 337.6872 0001400 270.6549  89.4142 15.27586723 50302
STARLINK-33840          
1 63682U 25085U   26078.01123306 -.00049209  00000+0 -17951-2 0  9994
2 63682  43.0005 338.4360 0003309 284.4386  75.6098 15.27492115 50294
STARLINK-33851          
1 63683U 25085V   26077.78164606  .00021212  00000+0  77779-3 0  9993
2 63683  42.9998 339.2883 0001084 240.3931 119.6813 15.27594045 50264
STARLINK-33853          
1 63684U 25085W   26077.71241118  .00004357  00000+0  16768-3 0  9993
2 63684  43.0007 339.6274 0000559 232.2585 127.8216 15.27595001 50257
STARLINK-33847          
1 63685U 25085X   26078.00093854  .00018417  00000+0  67659-3 0  9996
2 63685  43.0002 338.3578 0001373 272.4369  87.6325 15.27604904 50298
STARLINK-33880          
1 63686U 25085Y   26078.01378701  .00030276  00000+0  11050-2 0  9995
2 63686  43.0009 338.4543 0001510 272.4364  87.6315 15.27586737 50402
STARLINK-33894          
1 63697U 25087A   26077.97218368  .00024608  00000+0  84024-3 0  9999
2 63697  53.1595 176.2413 0002413  76.6007 283.5262 15.30198707 50623
STARLINK-33922          
1 63698U 25087B   26078.29453008  .00016736  00000+0  57565-3 0  9991
2 63698  53.1589 174.6963 0000906  74.2172 285.8929 15.30213829 50663
STARLINK-33919          
1 63699U 25087C   26077.56668515  .00013332  00000+0  46145-3 0  9993
2 63699  53.1545 178.6844 0000660  71.9031 288.2041 15.30198947 50556
STARLINK-33908          
1 63700U 25087D   26077.98484539  .00021263  00000+0  72775-3 0  9994
2 63700  53.1578 176.3180 0001797  86.5331 273.5875 15.30209342 50622
STARLINK-33950          
1 63701U 25087E   26078.26509546  .00020411  00000+0  69930-3 0  9996
2 63701  53.1576 175.2225 0001983  93.7589 266.3639 15.30201969 50660
STARLINK-33939          
1 63702U 25087F   26078.26192757  .00023735  00000+0  81059-3 0  9997
2 63702  53.1584 175.2015 0001430  94.8209 265.2955 15.30213938 50663
STARLINK-33868          
1 63703U 25087G   26077.98905528  .00022887  00000+0  78179-3 0  9990
2 63703  53.1607 176.3403 0000809 259.6620 100.4289 15.30229049 50626
STARLINK-33937          
1 63704U 25087H   26078.29134191  .00035236  00000+0  11938-2 0  9997
2 63704  53.1551 174.6739 0000978  76.4416 283.6694 15.30264865 50677
